      2.10          N: GNSS NAV DATA                        RINEX VERSION / TYPE
fic2rin                                 01/05/2021 00:17:32 PGM / RUN BY / DATE
                                                            END OF HEADER
 6 21  1  4 14  0  0.0-4.632864147425e-06-1.136868377216e-13 0.000000000000e+00
    7.100000000000e+01 2.550000000000e+01 4.135172246522e-09 5.528432419001e-01
    1.376494765282e-06 2.204870106652e-03 4.546716809273e-06 5.153685556412e+03
    1.368000000000e+05-7.823109626770e-08-9.398986445855e-01-1.490116119385e-08
    9.822414288581e-01 2.992812500000e+02-1.133377736818e+00-8.147125074747e-09
    2.814402945465e-10 1.000000000000e+00 2.139000000000e+03 0.000000000000e+00
    2.400000000000e+00 0.000000000000e+00 4.190951585770e-09 7.100000000000e+01
    1.296000000000e+05 4.000000000000e+00
 7 21  1  4 14  0  0.0 8.764211088419e-06 1.466560206609e-11 0.000000000000e+00
    4.300000000000e+01 3.509375000000e+01 5.088069081357e-09-4.939044814927e-01
    1.866370439529e-06 1.430188363884e-02 6.962567567825e-06 5.153610469818e+03
    1.368000000000e+05-7.450580596924e-09 2.210450647491e+00 2.123415470123e-07
    9.519352712165e-01 2.398125000000e+02-2.356424455063e+00-8.523569326590e-09
    5.071639825584e-11 1.000000000000e+00 2.139000000000e+03 0.000000000000e+00
    2.400000000000e+00 0.000000000000e+00-1.117587089539e-08 4.300000000000e+01
    1.296000000000e+05 4.000000000000e+00
15 21  1  4 14  0  0.0-1.786262728274e-04 2.614797267597e-12 0.000000000000e+00
    8.000000000000e+01-3.665625000000e+01 5.339865283966e-09 1.351882820877e+00
   -1.821666955948e-06 1.310686743818e-02 1.119822263718e-05 5.153800230026e+03
    1.368000000000e+05-2.719461917877e-07 1.041718769871e+00 6.705522537231e-08
    9.284902110699e-01 1.522187500000e+02 9.632479816134e-01-8.458566618966e-09
    3.714440435639e-11 1.000000000000e+00 2.139000000000e+03 0.000000000000e+00
    2.400000000000e+00 0.000000000000e+00-1.071020960808e-08 8.000000000000e+01
    1.296000000000e+05 4.000000000000e+00
31 21  1  4 14  0  0.0-9.182002395391e-05-2.387423592154e-12 0.000000000000e+00
    2.100000000000e+01 3.681250000000e+01 4.941634410337e-09-9.305850278360e-01
    1.899898052216e-06 9.978510672227e-03 6.664544343948e-06 5.153710706711e+03
    1.368000000000e+05 2.216547727585e-07 2.226917613269e+00-1.247972249985e-07
    9.563080445372e-01 2.476250000000e+02 2.287361713454e-01-8.272844597184e-09
    1.835790753768e-10 1.000000000000e+00 2.139000000000e+03 0.000000000000e+00
    2.400000000000e+00 0.000000000000e+00-1.303851604462e-08 2.100000000000e+01
    1.296000000000e+05 4.000000000000e+00
30 21  1  4 14  0  0.0-3.635212779045e-04-6.139089236967e-12 0.000000000000e+00
    4.200000000000e+01 3.568750000000e+01 5.290934674381e-09-5.099998075619e-01
    1.730397343636e-06 4.741053911857e-03 6.707385182381e-06 5.153761159897e+03
    1.368000000000e+05 5.774199962616e-08 2.229780162128e+00 2.793967723846e-08
    9.371959941350e-01 2.366250000000e+02-2.847683209710e+00-8.478210294347e-09
    6.000249934494e-11 1.000000000000e+00 2.139000000000e+03 0.000000000000e+00
    2.400000000000e+00 0.000000000000e+00 3.725290298462e-09 4.200000000000e+01
    1.296000000000e+05 4.000000000000e+00
22 21  1  4 14  0  0.0-7.040351629257e-04 6.480149750132e-12 0.000000000000e+00
    5.500000000000e+01-8.193750000000e+01 5.439155134072e-09 1.326033811819e+00
   -4.371628165245e-06 6.836465443484e-03 4.723668098450e-06 5.153639869690e+03
    1.368000000000e+05 1.490116119385e-07 1.264474119565e-02-8.754432201385e-08
    9.335377816872e-01 2.769062500000e+02-1.055349236972e+00-8.672861259484e-09
   -8.571785620706e-11 1.000000000000e+00 2.139000000000e+03 0.000000000000e+00
    2.400000000000e+00 0.000000000000e+00-1.816079020500e-08 5.500000000000e+01
    1.296000000000e+05 4.000000000000e+00
24 21  1  4 14  0  0.0 4.135537892580e-06-5.684341886081e-13 0.000000000000e+00
    3.400000000000e+01 4.484375000000e+01 5.483442693112e-09 4.827681097781e-01
    2.508983016014e-06 1.079976570327e-02 6.575137376785e-06 5.153616481781e+03
    1.368000000000e+05-5.960464477539e-08 2.134562974647e+00 2.142041921616e-07
    9.352411508336e-01 2.372500000000e+02 7.172150700408e-01-8.650717479963e-09
    7.643175511796e-11 1.000000000000e+00 2.139000000000e+03 0.000000000000e+00
    3.400000000000e+00 0.000000000000e+00 2.793967723846e-09 3.400000000000e+01
    1.296000000000e+05 4.000000000000e+00
12 21  1  4 14  0  0.0 1.756986603141e-05-5.229594535194e-12 0.000000000000e+00
    8.500000000000e+01-2.968750000000e+00 4.303393539329e-09-1.162985906985e+00
   -1.303851604462e-07 8.169300854206e-03 7.808208465576e-06 5.153575296402e+03
    1.368000000000e+05 3.166496753693e-08-2.964022227857e+00 2.272427082062e-07
    9.757634739967e-01 2.365000000000e+02 1.169358460062e+00-7.983189674751e-09
   -4.757341019492e-10 1.000000000000e+00 2.139000000000e+03 0.000000000000e+00
    2.400000000000e+00 0.000000000000e+00-1.257285475731e-08 8.500000000000e+01
    1.296000000000e+05 4.000000000000e+00
25 21  1  4 14  0  0.0 5.303649231791e-05 7.503331289627e-12 0.000000000000e+00
    2.700000000000e+01-3.406250000000e+00 4.568047420368e-09-1.490193790404e+00
   -1.918524503708e-07 9.592553251423e-03 7.493421435356e-06 5.153681255341e+03
    1.368000000000e+05 2.495944499969e-07-3.035678774423e+00 6.891787052155e-08
    9.630858127556e-01 2.351250000000e+02 9.308276118377e-01-8.031048811133e-09
   -4.632335812523e-10 1.000000000000e+00 2.139000000000e+03 0.000000000000e+00
    2.400000000000e+00 0.000000000000e+00 5.587935447693e-09 2.700000000000e+01
    1.296000000000e+05 4.000000000000e+00
28 21  1  4 14  0  0.0 6.342343986034e-04-5.002220859751e-12 0.000000000000e+00
    3.000000000000e+01-2.500000000000e+00 4.113028467002e-09 3.071064144137e+00
   -6.146728992462e-08 1.813336694613e-02 7.653608918190e-06 5.153666839600e+03
    1.368000000000e+05 1.993030309677e-07-2.941621574186e+00 4.842877388000e-08
    9.749680693449e-01 2.375625000000e+02-1.359317793339e+00-7.582101539249e-09
   -4.460900100109e-10 1.000000000000e+00 2.139000000000e+03 0.000000000000e+00
    2.400000000000e+00 0.000000000000e+00-1.117587089539e-08 3.000000000000e+01
    1.296000000000e+05 4.000000000000e+00
32 21  1  4 14  0  0.0 1.240009441972e-05 2.273736754432e-12 0.000000000000e+00
    6.500000000000e+01-3.403125000000e+01 4.483758195098e-09 3.090821481852e+00
   -1.750886440277e-06 4.383015562780e-03 1.198239624500e-05 5.153627492905e+03
    1.368000000000e+05-2.048909664154e-08 1.146441715225e+00-6.519258022308e-08
    9.568480895236e-01 1.439062500000e+02-2.461662966395e+00-7.867470568871e-09
    1.503634060966e-10 1.000000000000e+00 2.139000000000e+03 0.000000000000e+00
    2.400000000000e+00 0.000000000000e+00 4.656612873077e-10 6.500000000000e+01
    1.296000000000e+05 4.000000000000e+00
26 21  1  4 14  0  0.0 2.486957237124e-05 5.798028723802e-12 0.000000000000e+00
    8.600000000000e+01-8.625000000000e+00 5.022352058265e-09-2.079134031204e+00
   -4.954636096954e-07 5.563354003243e-03 7.312744855881e-06 5.153729095459e+03
    1.368000000000e+05-1.676380634308e-08-3.075074399043e+00-2.048909664154e-08
    9.440540941109e-01 2.313437500000e+02 2.401649057752e-01-8.302131531388e-09
   -3.693010971588e-10 1.000000000000e+00 2.139000000000e+03 0.000000000000e+00
    2.400000000000e+00 0.000000000000e+00 6.984919309616e-09 8.600000000000e+01
    1.296000000000e+05 4.000000000000e+00
13 21  1  4 14  0  0.0 8.225440979004e-05 4.092726157978e-12 0.000000000000e+00
    5.900000000000e+01-1.171875000000e+01 4.367324773750e-09 1.680573924752e+00
   -6.426125764847e-07 4.913272452541e-03 1.083873212337e-05 5.153686939240e+03
    1.368000000000e+05-1.229345798492e-07 1.283447524832e+00-6.146728992462e-08
    9.676684402118e-01 1.751250000000e+02 1.043470116879e+00-7.854970048174e-09
    2.053656971627e-10 1.000000000000e+00 2.139000000000e+03 0.000000000000e+00
    2.400000000000e+00 0.000000000000e+00-1.164153218269e-08 5.900000000000e+01
    1.296000000000e+05 4.000000000000e+00
21 21  1  4 14  0  0.0 8.382555097342e-05 3.410605131648e-12 0.000000000000e+00
    6.100000000000e+01 5.362500000000e+01 4.675194740627e-09 2.589402379323e+00
    2.637505531311e-06 2.415330649819e-02 4.338100552559e-06 5.153743333817e+03
    1.368000000000e+05 4.321336746216e-07-1.011521173917e+00-3.911554813385e-08
    9.556133471659e-01 2.871875000000e+02-1.218624246671e+00-8.106766250783e-09
    1.653640309328e-10 1.000000000000e+00 2.139000000000e+03 0.000000000000e+00
    2.400000000000e+00 0.000000000000e+00-1.024454832077e-08 6.100000000000e+01
    1.296000000000e+05 4.000000000000e+00
17 21  1  4 14  0  0.0 3.759344108403e-04 4.888534022029e-12 0.000000000000e+00
    6.000000000000e+01 4.221875000000e+01 3.685153501435e-09 2.236630385753e+00
    2.203509211540e-06 1.361782103777e-02 9.376555681229e-06 5.153527849197e+03
    1.368000000000e+05 2.011656761169e-07-1.928823759937e+00-8.381903171539e-08
    9.829393709817e-01 2.061250000000e+02-1.592404662572e+00-7.504955468662e-09
    3.035840740667e-11 1.000000000000e+00 2.139000000000e+03 0.000000000000e+00
    2.400000000000e+00 0.000000000000e+00-1.117587089539e-08 6.000000000000e+01
    1.296000000000e+05 4.000000000000e+00
23 21  1  4 14  0  0.0 1.144777052104e-04 2.046363078989e-12 0.000000000000e+00
    2.600000000000e+01-9.193750000000e+01 4.675194740627e-09-1.456194215191e-02
   -4.744157195091e-06 1.082754693925e-03 6.074085831642e-06 5.153639997482e+03
    1.368000000000e+05-4.656612873077e-08 8.135322109963e-02 5.029141902924e-08
    9.630529000246e-01 2.632500000000e+02 2.295176162477e+00-8.278916278665e-09
   -1.228622605635e-10 1.000000000000e+00 2.139000000000e+03 0.000000000000e+00
    2.400000000000e+00 0.000000000000e+00-8.381903171539e-09 2.820000000000e+02
    1.296000000000e+05 4.000000000000e+00
